OBJECT_NAME,OBJECT_ID,EPOCH,MEAN_MOTION,ECCENTRICITY,INCLINATION,RA_OF_ASC_NODE,ARG_OF_PERICENTER,MEAN_ANOMALY,EPHEMERIS_TYPE,CLASSIFICATION_TYPE,NORAD_CAT_ID,ELEMENT_SET_NO,REV_AT_EPOCH,BSTAR,MEAN_MOTION_DOT,MEAN_MOTION_DDOT
LEMUR-2-FINNIAN,2025-276DX,2026-06-17T22:44:04.300800,15.00386873,.00088775,97.5288,239.9144,87.1691,273.0549,0,U,66782,999,2011,.46229679E-3,.5756E-4,0
LEMUR-2-STARLIGHT,2025-276DY,2026-06-17T02:28:42.612672,14.99040378,.00151697,97.5267,238.7459,128.2634,231.9956,0,U,66783,999,3018,.3255371E-3,.3901E-4,0
LEMUR-2-TARTIFLETTE,2025-276DZ,2026-06-17T10:27:07.086816,14.99071713,.00140803,97.5266,239.0726,133.6482,226.5911,0,U,66784,999,3023,.30654914E-3,.3672E-4,0
LEMUR-2-VUKASIN,2025-276EA,2026-06-17T10:17:40.677792,15.00370036,.00060024,97.5311,239.3626,121.7435,238.4374,0,U,66785,999,3018,.35548173E-3,.4408E-4,0
LEMUR-2-HOTSPUR-TOM,2025-276EB,2026-06-17T03:51:56.303712,14.98961077,.00154966,97.5263,238.7889,127.8317,232.4312,0,U,66786,999,3012,.37582599E-3,.4504E-4,0
LEMUR-2-MYRA,2025-276EC,2026-06-17T17:27:12.785184,15.00252651,.00166645,97.5215,239.5906,139.6728,220.5735,0,U,66787,999,3029,.51074321E-3,.6356E-4,0
LEMUR-2 FIKRETDENGIZ,2026-004A,2026-06-17T14:31:06.504096,14.88327465,.0010131,97.8015,167.1565,131.8110,228.3974,0,U,67363,999,2334,.37429E-3,.3412E-4,0
TWILIGHT-1 OBJECT B,2026-004B,2026-06-17T21:33:59.292288,14.87704404,.00099965,97.8060,167.4605,122.3888,237.8297,0,U,67364,999,2339,.16742254E-3,.1472E-4,0
LEMUR-2-MARIO-SOUSA,2026-004C,2026-06-17T22:11:26.522592,14.88517978,.00097114,97.7987,167.4675,131.5990,228.6061,0,U,67365,999,2340,.37739064E-3,.3457E-4,0
LEMUR-2-SONNENBLUME,2026-004E,2026-06-17T06:01:08.129856,14.88315759,.00091784,97.7981,166.7886,134.9568,225.2395,0,U,67367,999,2330,.21389182E-3,.1925E-4,0
LEMUR-2-WOBLER,2026-004F,2026-06-17T12:18:56.755296,14.88518299,.00096217,97.8037,167.1694,124.7531,235.4593,0,U,67368,999,2334,.28226977E-3,.2571E-4,0
LEMUR-2-GRAM-E-SUE,2026-004H,2026-06-17T23:23:06.840672,14.88473899,.00082357,97.7970,167.5160,133.4772,226.7131,0,U,67370,999,2341,.17291031E-3,.1552E-4,0
LEMUR-2-KATIE,2026-004AA,2026-06-17T23:03:35.412192,14.90052933,.00048599,97.8034,167.9644,91.4386,268.7388,0,U,67387,999,2342,.28486828E-3,.2696E-4,0
LEMUR-2-HCS-BAZUS,2026-004AB,2026-06-17T14:58:43.527360,14.90075071,.0004448,97.8021,167.6127,89.4033,270.7694,0,U,67388,999,2337,.46147E-3,.4404E-4,0
